{
"type": "FeatureCollection",
"name": "ev_station",
"crs": { "type": "name", "properties": { "name": "urn:ogc:def:crs:OGC:1.3:CRS84" } },
"features": [
{ "type": "Feature", "properties": { "id_0": 1, "id": 8, "amenity": "charging_station", "operator": "ABB Malaysia Sunway", "access": "yes", "capacity": null, "name": "EV Charger", "addr_place": "ABB Sunway", "alt_name": "EV Charger DCFC", "brand": "ABB Terra 53 CJG", "charge": null, "state": "Selangor" }, "geometry": { "type": "Point", "coordinates": [ 101.5970579, 3.0650098 ] } },
{ "type": "Feature", "properties": { "id_0": 2, "id": 9, "amenity": "charging_station", "operator": "chargEV", "access": "yes", "capacity": "22 kW", "name": "EV Charger", "addr_place": "Subang Parade", "alt_name": "EV Charger AC", "brand": "chargEV", "charge": "chargEV subscription", "state": "Selangor" }, "geometry": { "type": "Point", "coordinates": [ 101.5841829, 3.0819419 ] } },
{ "type": "Feature", "properties": { "id_0": 3, "id": 10, "amenity": "charging_station", "operator": "chargEV", "access": null, "capacity": null, "name": null, "addr_place": null, "alt_name": "EV Charger AC", "brand": null, "charge": null, "state": "Selangor" }, "geometry": { "type": "Point", "coordinates": [ 101.5824283, 3.0814414 ] } },
{ "type": "Feature", "properties": { "id_0": 4, "id": 11, "amenity": "charging_station", "operator": "chargEV", "access": "yes", "capacity": "22 kW", "name": "EV Charger", "addr_place": "Petronas Temasya Glenmarie", "alt_name": "EV Charger AC", "brand": "chargEV", "charge": "chargEV subscription", "state": "Selangor" }, "geometry": { "type": "Point", "coordinates": [ 101.5835375, 3.0844995 ] } },
{ "type": "Feature", "properties": { "id_0": 5, "id": 12, "amenity": "charging_station", "operator": "chargEV", "access": "yes", "capacity": "22 kW", "name": "EV Charger", "addr_place": "Petronas Batu Tiga", "alt_name": "EV Charger AC", "brand": "chargEV", "charge": "chargEV subscription", "state": "Selangor" }, "geometry": { "type": "Point", "coordinates": [ 101.5723465, 3.080612 ] } },
{ "type": "Feature", "properties": { "id_0": 6, "id": 13, "amenity": "charging_station", "operator": "Vision Motorsports", "access": "customers", "capacity": "22, 40 kW", "name": "EV Charger", "addr_place": "Vision Motorsports", "alt_name": "Exicom 40 kW DC", "brand": null, "charge": null, "state": "Selangor" }, "geometry": { "type": "Point", "coordinates": [ 101.6096955, 3.1337766 ] } },
{ "type": "Feature", "properties": { "id_0": 7, "id": 18, "amenity": "charging_station", "operator": "Pekema Malaysia", "access": "yes", "capacity": "22-60 kW", "name": "EV Charger", "addr_place": "Zaibar Automobile", "alt_name": "PEKEMA charger", "brand": "Exicom Harmony", "charge": null, "state": "Selangor" }, "geometry": { "type": "Point", "coordinates": [ 101.5570565, 3.0353047 ] } },
{ "type": "Feature", "properties": { "id_0": 8, "id": 29, "amenity": "charging_station", "operator": "Kuro EV Malaysia", "access": "yes", "capacity": "50kW", "name": "Kuro EV (M) Sdn Bhd", "addr_place": null, "alt_name": null, "brand": null, "charge": "MYR1.20\/min", "state": "Selangor" }, "geometry": { "type": "Point", "coordinates": [ 101.7064622, 3.0444818 ] } },
{ "type": "Feature", "properties": { "id_0": 9, "id": 33, "amenity": "charging_station", "operator": "Shell Recharge \/ ParkEasy", "access": "yes", "capacity": "22kW", "name": null, "addr_place": null, "alt_name": null, "brand": "BMW i", "charge": "MYR1 for first 2 hour, subsequent hour MYR2.80", "state": "Selangor" }, "geometry": { "type": "Point", "coordinates": [ 101.7057034, 3.0491375 ] } },
{ "type": "Feature", "properties": { "id_0": 10, "id": 49, "amenity": "charging_station", "operator": "Tesla, Inc.", "access": "customers", "capacity": "4", "name": "Tesla Supercharger", "addr_place": null, "alt_name": null, "brand": "Tesla Supercharger", "charge": null, "state": "Selangor" }, "geometry": { "type": "Point", "coordinates": [ 101.6072087, 3.0735536 ] } },
{ "type": "Feature", "properties": { "id_0": 11, "id": 58, "amenity": "charging_station", "operator": "GO TO-U", "access": "yes", "capacity": null, "name": "GO TO-U", "addr_place": null, "alt_name": null, "brand": "GO TO-U", "charge": null, "state": "Selangor" }, "geometry": { "type": "Point", "coordinates": [ 101.6571641, 2.9089805 ] } },
{ "type": "Feature", "properties": { "id_0": 12, "id": 59, "amenity": "charging_station", "operator": "chargEV", "access": "yes", "capacity": null, "name": "chargEV", "addr_place": null, "alt_name": null, "brand": "chargEV", "charge": null, "state": "Selangor" }, "geometry": { "type": "Point", "coordinates": [ 101.6566397, 2.9088289 ] } },
{ "type": "Feature", "properties": { "id_0": 13, "id": 62, "amenity": "charging_station", "operator": "Gentari", "access": "yes", "capacity": null, "name": "Gentari", "addr_place": null, "alt_name": null, "brand": "Gentari", "charge": null, "state": "Selangor" }, "geometry": { "type": "Point", "coordinates": [ 101.6830042, 2.7645458 ] } },
{ "type": "Feature", "properties": { "id_0": 14, "id": 64, "amenity": "charging_station", "operator": "Gentari", "access": "yes", "capacity": null, "name": "JomCharge", "addr_place": null, "alt_name": null, "brand": "Gentari", "charge": null, "state": "Selangor" }, "geometry": { "type": "Point", "coordinates": [ 101.5206194, 3.6628853 ] } },
{ "type": "Feature", "properties": { "id_0": 15, "id": 94, "amenity": "charging_station", "operator": "chargEV", "access": "yes", "capacity": null, "name": "chargEV", "addr_place": null, "alt_name": null, "brand": "chargEV", "charge": null, "state": "Selangor" }, "geometry": { "type": "Point", "coordinates": [ 101.7652185, 3.0332795 ] } },
{ "type": "Feature", "properties": { "id_0": 16, "id": 95, "amenity": "charging_station", "operator": "JomCharge", "access": "yes", "capacity": null, "name": "JomCharge", "addr_place": null, "alt_name": null, "brand": "JomCharge", "charge": null, "state": "Selangor" }, "geometry": { "type": "Point", "coordinates": [ 101.7541855, 3.0271608 ] } },
{ "type": "Feature", "properties": { "id_0": 17, "id": 110, "amenity": "charging_station", "operator": "Gentari", "access": "yes", "capacity": null, "name": "Gentari", "addr_place": null, "alt_name": null, "brand": "Gentari", "charge": null, "state": "Selangor" }, "geometry": { "type": "Point", "coordinates": [ 101.7250896, 3.0058004 ] } },
{ "type": "Feature", "properties": { "id_0": 18, "id": 120, "amenity": "charging_station", "operator": "Tesla, Inc.", "access": "yes", "capacity": null, "name": "Tesla Supercharger", "addr_place": null, "alt_name": null, "brand": "Tesla Supercharger", "charge": null, "state": "Selangor" }, "geometry": { "type": "Point", "coordinates": [ 101.6172601, 2.8851044 ] } },
{ "type": "Feature", "properties": { "id_0": 19, "id": 121, "amenity": "charging_station", "operator": null, "access": "yes", "capacity": null, "name": "Tesla Destination Charger", "addr_place": null, "alt_name": null, "brand": "Tesla, Inc.", "charge": null, "state": "Selangor" }, "geometry": { "type": "Point", "coordinates": [ 101.6173062, 2.8849195 ] } },
{ "type": "Feature", "properties": { "id_0": 20, "id": 122, "amenity": "charging_station", "operator": null, "access": "yes", "capacity": null, "name": "BMW Destination Charging Station", "addr_place": null, "alt_name": null, "brand": null, "charge": null, "state": "Selangor" }, "geometry": { "type": "Point", "coordinates": [ 101.6163671, 2.8860489 ] } },
{ "type": "Feature", "properties": { "id_0": 21, "id": 123, "amenity": "charging_station", "operator": null, "access": "yes", "capacity": null, "name": "Tesla Destination Charger", "addr_place": null, "alt_name": null, "brand": "Tesla, Inc.", "charge": null, "state": "Selangor" }, "geometry": { "type": "Point", "coordinates": [ 101.7161964, 2.9701078 ] } },
{ "type": "Feature", "properties": { "id_0": 22, "id": 124, "amenity": "charging_station", "operator": "Shell Recharge Solutions", "access": "yes", "capacity": null, "name": "Shell Recharge", "addr_place": null, "alt_name": null, "brand": "Shell Recharge", "charge": null, "state": "Selangor" }, "geometry": { "type": "Point", "coordinates": [ 101.7135594, 2.9705213 ] } },
{ "type": "Feature", "properties": { "id_0": 23, "id": 130, "amenity": "charging_station", "operator": "DC Handal", "access": "yes", "capacity": null, "name": "DC Handal", "addr_place": null, "alt_name": null, "brand": "DC Handal", "charge": null, "state": "Selangor" }, "geometry": { "type": "Point", "coordinates": [ 101.7134794, 2.9696481 ] } },
{ "type": "Feature", "properties": { "id_0": 24, "id": 131, "amenity": "charging_station", "operator": "Tesla, Inc.", "access": "yes", "capacity": null, "name": "Tesla Supercharger", "addr_place": null, "alt_name": null, "brand": "Tesla Supercharger", "charge": null, "state": "Selangor" }, "geometry": { "type": "Point", "coordinates": [ 101.71547, 2.9698847 ] } },
{ "type": "Feature", "properties": { "id_0": 25, "id": 135, "amenity": "charging_station", "operator": "EVGuru", "access": "yes", "capacity": null, "name": "EVGuru", "addr_place": null, "alt_name": null, "brand": "EVGuru", "charge": null, "state": "Selangor" }, "geometry": { "type": "Point", "coordinates": [ 101.7509655, 3.0260201 ] } },
{ "type": "Feature", "properties": { "id_0": 26, "id": 136, "amenity": "charging_station", "operator": "Tesla, Inc.", "access": "yes", "capacity": null, "name": "Tesla Supercharger", "addr_place": null, "alt_name": null, "brand": "Tesla Supercharger", "charge": null, "state": "Selangor" }, "geometry": { "type": "Point", "coordinates": [ 101.6581696, 2.9152446 ] } },
{ "type": "Feature", "properties": { "id_0": 27, "id": 140, "amenity": "charging_station", "operator": "Gentari", "access": "yes", "capacity": null, "name": "Gentari", "addr_place": null, "alt_name": null, "brand": "Gentari", "charge": null, "state": "Selangor" }, "geometry": { "type": "Point", "coordinates": [ 101.7528222, 3.0274973 ] } },
{ "type": "Feature", "properties": { "id_0": 28, "id": 150, "amenity": "charging_station", "operator": "Carput Zap", "access": "yes", "capacity": null, "name": "Carput Zap", "addr_place": null, "alt_name": null, "brand": "Carput Zap", "charge": null, "state": "Selangor" }, "geometry": { "type": "Point", "coordinates": [ 101.7090853, 3.0356408 ] } },
{ "type": "Feature", "properties": { "id_0": 29, "id": 152, "amenity": "charging_station", "operator": "Gentari", "access": "yes", "capacity": null, "name": "Gentari Charging Station", "addr_place": null, "alt_name": null, "brand": "Gentari Charging Station", "charge": null, "state": "Selangor" }, "geometry": { "type": "Point", "coordinates": [ 101.6164816, 2.8852818 ] } },
{ "type": "Feature", "properties": { "id_0": 30, "id": 153, "amenity": "charging_station", "operator": "ChargeSini", "access": null, "capacity": null, "name": "ChargeSini", "addr_place": null, "alt_name": null, "brand": "ChargeSini", "charge": null, "state": "Selangor" }, "geometry": { "type": "Point", "coordinates": [ 101.7511751, 3.0248884 ] } },
{ "type": "Feature", "properties": { "id_0": 31, "id": 155, "amenity": "charging_station", "operator": "Gentari", "access": "yes", "capacity": null, "name": "Gentari", "addr_place": null, "alt_name": null, "brand": "Gentari", "charge": null, "state": "Selangor" }, "geometry": { "type": "Point", "coordinates": [ 101.6853896, 2.765871 ] } },
{ "type": "Feature", "properties": { "id_0": 32, "id": 160, "amenity": "charging_station", "operator": "Virta", "access": "permissive", "capacity": "2", "name": null, "addr_place": null, "alt_name": null, "brand": "Virta Global", "charge": null, "state": "Selangor" }, "geometry": { "type": "Point", "coordinates": [ 101.5602394, 3.0444087 ] } },
{ "type": "Feature", "properties": { "id_0": 33, "id": 171, "amenity": "charging_station", "operator": "Yinson GreenTech Business", "access": null, "capacity": "4", "name": "AEON Mall Rawang Rear Entrance", "addr_place": null, "alt_name": null, "brand": null, "charge": null, "state": "Selangor" }, "geometry": { "type": "Point", "coordinates": [ 101.5359946, 3.316819 ] } },
{ "type": "Feature", "properties": { "id_0": 34, "id": 5, "amenity": "charging_station", "operator": "松家园", "access": null, "capacity": null, "name": null, "addr_place": null, "alt_name": null, "brand": null, "charge": null, "state": "Johor" }, "geometry": { "type": "Point", "coordinates": [ 103.5158573, 1.5180372 ] } },
{ "type": "Feature", "properties": { "id_0": 35, "id": 23, "amenity": "charging_station", "operator": "Palkom Motors", "access": "yes", "capacity": "22 kW, 40 kW (100A)", "name": "EV Charger", "addr_place": "Palkom Motors", "alt_name": "PEKEMA charger", "brand": "Exicom Harmony", "charge": "FOC initially", "state": "Johor" }, "geometry": { "type": "Point", "coordinates": [ 103.7806642, 1.5309568 ] } },
{ "type": "Feature", "properties": { "id_0": 36, "id": 37, "amenity": "charging_station", "operator": "chargEV", "access": "yes", "capacity": "2", "name": "chargEV", "addr_place": null, "alt_name": null, "brand": "chargEV", "charge": null, "state": "Johor" }, "geometry": { "type": "Point", "coordinates": [ 103.7478477, 1.5758687 ] } },
{ "type": "Feature", "properties": { "id_0": 37, "id": 38, "amenity": "charging_station", "operator": "chargEV", "access": "yes", "capacity": "2", "name": "chargEV", "addr_place": null, "alt_name": null, "brand": "chargEV", "charge": null, "state": "Johor" }, "geometry": { "type": "Point", "coordinates": [ 103.7175605, 1.5485937 ] } },
{ "type": "Feature", "properties": { "id_0": 38, "id": 39, "amenity": "charging_station", "operator": "JomCharge", "access": "yes", "capacity": "1", "name": "JomCharge", "addr_place": null, "alt_name": null, "brand": "JomCharge BHP R&R Skudai Charging Station", "charge": null, "state": "Johor" }, "geometry": { "type": "Point", "coordinates": [ 103.6359419, 1.5896637 ] } },
{ "type": "Feature", "properties": { "id_0": 39, "id": 40, "amenity": "charging_station", "operator": "Gentari", "access": "yes", "capacity": "3", "name": "Gentari", "addr_place": null, "alt_name": null, "brand": "Gentari", "charge": null, "state": "Johor" }, "geometry": { "type": "Point", "coordinates": [ 103.7143672, 1.5488828 ] } },
{ "type": "Feature", "properties": { "id_0": 40, "id": 41, "amenity": "charging_station", "operator": "chargEV", "access": "yes", "capacity": null, "name": "chargEV", "addr_place": null, "alt_name": null, "brand": "Starbucks R&R Skudai Charging Station", "charge": null, "state": "Johor" }, "geometry": { "type": "Point", "coordinates": [ 103.6359783, 1.5907961 ] } },
{ "type": "Feature", "properties": { "id_0": 41, "id": 42, "amenity": "charging_station", "operator": "JomCharge", "access": "yes", "capacity": "2", "name": "JomCharge", "addr_place": null, "alt_name": null, "brand": "FamilyMart R&R Skudai EV Charging Station", "charge": null, "state": "Johor" }, "geometry": { "type": "Point", "coordinates": [ 103.6352088, 1.5910443 ] } },
{ "type": "Feature", "properties": { "id_0": 42, "id": 43, "amenity": "charging_station", "operator": "JomCharge", "access": "yes", "capacity": "1", "name": "JomCharge", "addr_place": null, "alt_name": null, "brand": "Caltex R&R Skudai Charging Station", "charge": null, "state": "Johor" }, "geometry": { "type": "Point", "coordinates": [ 103.6352084, 1.5899128 ] } },
{ "type": "Feature", "properties": { "id_0": 43, "id": 44, "amenity": "charging_station", "operator": "JomCharge Eco Palladium Charging Station", "access": "yes", "capacity": null, "name": "JomCharge", "addr_place": null, "alt_name": null, "brand": "JomCharge", "charge": null, "state": "Johor" }, "geometry": { "type": "Point", "coordinates": [ 103.7585463, 1.5872118 ] } },
{ "type": "Feature", "properties": { "id_0": 44, "id": 45, "amenity": "charging_station", "operator": "Tesla, Inc.", "access": "yes", "capacity": "4", "name": "Tesla Supercharger", "addr_place": null, "alt_name": null, "brand": "Tesla Supercharger", "charge": null, "state": "Johor" }, "geometry": { "type": "Point", "coordinates": [ 103.6268215, 1.3968741 ] } },
{ "type": "Feature", "properties": { "id_0": 45, "id": 46, "amenity": "charging_station", "operator": null, "access": "yes", "capacity": "2", "name": "Tesla Destination Charger", "addr_place": null, "alt_name": null, "brand": "Tesla, Inc.", "charge": null, "state": "Johor" }, "geometry": { "type": "Point", "coordinates": [ 103.6272334, 1.3968486 ] } },
{ "type": "Feature", "properties": { "id_0": 46, "id": 47, "amenity": "charging_station", "operator": "Gentari", "access": null, "capacity": "1", "name": null, "addr_place": null, "alt_name": null, "brand": "Gentari @ XPark Sunway Iskandar", "charge": null, "state": "Johor" }, "geometry": { "type": "Point", "coordinates": [ 103.6253779, 1.3954973 ] } },
{ "type": "Feature", "properties": { "id_0": 47, "id": 48, "amenity": "charging_station", "operator": "Shell Recharge Solutions", "access": "yes", "capacity": null, "name": "Shell Recharge", "addr_place": null, "alt_name": null, "brand": "Shell Recharge", "charge": null, "state": "Johor" }, "geometry": { "type": "Point", "coordinates": [ 103.6359475, 1.5892773 ] } },
{ "type": "Feature", "properties": { "id_0": 48, "id": 51, "amenity": "charging_station", "operator": "CHARGE+", "access": "yes", "capacity": "2", "name": "CHARGE+", "addr_place": null, "alt_name": null, "brand": "CHARGE+", "charge": null, "state": "Johor" }, "geometry": { "type": "Point", "coordinates": [ 103.635316, 1.591432 ] } },
{ "type": "Feature", "properties": { "id_0": 49, "id": 53, "amenity": "charging_station", "operator": "Gentari", "access": "yes", "capacity": null, "name": "Gentari", "addr_place": null, "alt_name": null, "brand": "Gentari", "charge": null, "state": "Johor" }, "geometry": { "type": "Point", "coordinates": [ 103.1878649, 1.9328012 ] } },
{ "type": "Feature", "properties": { "id_0": 50, "id": 55, "amenity": "charging_station", "operator": "DC Handal", "access": "yes", "capacity": "2", "name": "DC Handal", "addr_place": null, "alt_name": null, "brand": "DC Handal", "charge": null, "state": "Johor" }, "geometry": { "type": "Point", "coordinates": [ 104.264171, 1.5386593 ] } },
{ "type": "Feature", "properties": { "id_0": 51, "id": 56, "amenity": "charging_station", "operator": "chargEV", "access": "yes", "capacity": null, "name": "chargEV", "addr_place": null, "alt_name": null, "brand": "chargEV", "charge": null, "state": "Johor" }, "geometry": { "type": "Point", "coordinates": [ 104.2675336, 1.5379136 ] } },
{ "type": "Feature", "properties": { "id_0": 52, "id": 57, "amenity": "charging_station", "operator": "chargEV", "access": null, "capacity": null, "name": "chargEV", "addr_place": null, "alt_name": null, "brand": "chargEV", "charge": null, "state": "Johor" }, "geometry": { "type": "Point", "coordinates": [ 104.2643074, 1.5406321 ] } },
{ "type": "Feature", "properties": { "id_0": 53, "id": 60, "amenity": "charging_station", "operator": "ChargeSini", "access": "yes", "capacity": "2", "name": "ChargeSini", "addr_place": null, "alt_name": null, "brand": "ChargeSini", "charge": null, "state": "Johor" }, "geometry": { "type": "Point", "coordinates": [ 103.6475928, 1.5930489 ] } },
{ "type": "Feature", "properties": { "id_0": 54, "id": 61, "amenity": "charging_station", "operator": "ChargeSini", "access": "yes", "capacity": null, "name": "ChargeSini", "addr_place": null, "alt_name": null, "brand": "ChargeSini", "charge": null, "state": "Johor" }, "geometry": { "type": "Point", "coordinates": [ 103.7564326, 1.58889 ] } },
{ "type": "Feature", "properties": { "id_0": 55, "id": 68, "amenity": "charging_station", "operator": "Gentari", "access": "yes", "capacity": null, "name": "Gentari", "addr_place": null, "alt_name": null, "brand": "Gentari", "charge": null, "state": "Johor" }, "geometry": { "type": "Point", "coordinates": [ 103.6660276, 1.6350433 ] } },
{ "type": "Feature", "properties": { "id_0": 56, "id": 69, "amenity": "charging_station", "operator": "Gentari", "access": null, "capacity": null, "name": "Gentari", "addr_place": null, "alt_name": null, "brand": "Gentari", "charge": null, "state": "Johor" }, "geometry": { "type": "Point", "coordinates": [ 103.7398848, 1.5436137 ] } },
{ "type": "Feature", "properties": { "id_0": 57, "id": 70, "amenity": "charging_station", "operator": "JomCharge", "access": null, "capacity": null, "name": "JomCharge", "addr_place": null, "alt_name": null, "brand": "JomCharge", "charge": null, "state": "Johor" }, "geometry": { "type": "Point", "coordinates": [ 103.753584, 1.5359947 ] } },
{ "type": "Feature", "properties": { "id_0": 58, "id": 71, "amenity": "charging_station", "operator": "JomCharge", "access": "yes", "capacity": null, "name": "JomCharge", "addr_place": null, "alt_name": null, "brand": "JomCharge", "charge": null, "state": "Johor" }, "geometry": { "type": "Point", "coordinates": [ 103.6729878, 1.5175849 ] } },
{ "type": "Feature", "properties": { "id_0": 59, "id": 72, "amenity": "charging_station", "operator": "ChargeSini", "access": "yes", "capacity": null, "name": "ChargeSini", "addr_place": null, "alt_name": null, "brand": "ChargeSini", "charge": null, "state": "Johor" }, "geometry": { "type": "Point", "coordinates": [ 103.6700851, 1.5170239 ] } },
{ "type": "Feature", "properties": { "id_0": 60, "id": 73, "amenity": "charging_station", "operator": "JomCharge", "access": "yes", "capacity": null, "name": "JomCharge", "addr_place": null, "alt_name": null, "brand": "JomCharge", "charge": null, "state": "Johor" }, "geometry": { "type": "Point", "coordinates": [ 103.6746135, 1.5170613 ] } },
{ "type": "Feature", "properties": { "id_0": 61, "id": 74, "amenity": "charging_station", "operator": "JomCharge", "access": "yes", "capacity": null, "name": "JomCharge", "addr_place": null, "alt_name": null, "brand": "JomCharge", "charge": null, "state": "Johor" }, "geometry": { "type": "Point", "coordinates": [ 103.6722384, 1.5176859 ] } },
{ "type": "Feature", "properties": { "id_0": 62, "id": 75, "amenity": "charging_station", "operator": "ChargeSini", "access": "yes", "capacity": null, "name": "ChargeSini", "addr_place": null, "alt_name": null, "brand": "ChargeSini", "charge": null, "state": "Johor" }, "geometry": { "type": "Point", "coordinates": [ 103.6722432, 1.5175847 ] } },
{ "type": "Feature", "properties": { "id_0": 63, "id": 76, "amenity": "charging_station", "operator": "Gentari", "access": null, "capacity": null, "name": "Gentari", "addr_place": null, "alt_name": null, "brand": "Gentari", "charge": null, "state": "Johor" }, "geometry": { "type": "Point", "coordinates": [ 103.68608, 1.5156556 ] } },
{ "type": "Feature", "properties": { "id_0": 64, "id": 77, "amenity": "charging_station", "operator": "Shell Recharge Solutions", "access": "yes", "capacity": null, "name": "ParkEasy", "addr_place": null, "alt_name": null, "brand": "ParkEasy", "charge": null, "state": "Johor" }, "geometry": { "type": "Point", "coordinates": [ 103.6858527, 1.5158835 ] } },
{ "type": "Feature", "properties": { "id_0": 65, "id": 78, "amenity": "charging_station", "operator": "ChargeSini", "access": "yes", "capacity": null, "name": "ChargeSini", "addr_place": null, "alt_name": null, "brand": "ChargeSini", "charge": null, "state": "Johor" }, "geometry": { "type": "Point", "coordinates": [ 103.7420182, 1.4908128 ] } },
{ "type": "Feature", "properties": { "id_0": 66, "id": 79, "amenity": "charging_station", "operator": "chargEV", "access": "yes", "capacity": null, "name": "chargEV", "addr_place": null, "alt_name": null, "brand": "chargEV", "charge": null, "state": "Johor" }, "geometry": { "type": "Point", "coordinates": [ 103.7696378, 1.4863458 ] } },
{ "type": "Feature", "properties": { "id_0": 67, "id": 80, "amenity": "charging_station", "operator": "ChargeSini", "access": "yes", "capacity": null, "name": "ChargeSini", "addr_place": null, "alt_name": null, "brand": "ChargeSini", "charge": null, "state": "Johor" }, "geometry": { "type": "Point", "coordinates": [ 103.7622735, 1.4861604 ] } },
{ "type": "Feature", "properties": { "id_0": 68, "id": 81, "amenity": "charging_station", "operator": "ChargeSini", "access": "yes", "capacity": null, "name": "ChargeSini", "addr_place": null, "alt_name": null, "brand": "ChargeSini", "charge": null, "state": "Johor" }, "geometry": { "type": "Point", "coordinates": [ 103.7627197, 1.4851363 ] } },
{ "type": "Feature", "properties": { "id_0": 69, "id": 82, "amenity": "charging_station", "operator": "JomCharge", "access": "yes", "capacity": null, "name": "JomCharge", "addr_place": null, "alt_name": null, "brand": "JomCharge", "charge": null, "state": "Johor" }, "geometry": { "type": "Point", "coordinates": [ 103.7621918, 1.4634195 ] } },
{ "type": "Feature", "properties": { "id_0": 70, "id": 83, "amenity": "charging_station", "operator": "chargEV", "access": "yes", "capacity": null, "name": "chargEV", "addr_place": null, "alt_name": null, "brand": "chargEV", "charge": null, "state": "Johor" }, "geometry": { "type": "Point", "coordinates": [ 103.762523, 1.4643898 ] } },
{ "type": "Feature", "properties": { "id_0": 71, "id": 84, "amenity": "charging_station", "operator": "Gentari", "access": "yes", "capacity": null, "name": "Gentari", "addr_place": null, "alt_name": null, "brand": "Gentari", "charge": null, "state": "Johor" }, "geometry": { "type": "Point", "coordinates": [ 103.7744656, 1.4840738 ] } },
{ "type": "Feature", "properties": { "id_0": 72, "id": 85, "amenity": "charging_station", "operator": null, "access": "customers", "capacity": null, "name": null, "addr_place": null, "alt_name": null, "brand": "EV Charging Station DoubleTree by Hilton Hotel Johor Bahru", "charge": null, "state": "Johor" }, "geometry": { "type": "Point", "coordinates": [ 103.7597496, 1.4655091 ] } },
{ "type": "Feature", "properties": { "id_0": 73, "id": 86, "amenity": "charging_station", "operator": "Gentari", "access": null, "capacity": null, "name": "Gentari", "addr_place": null, "alt_name": null, "brand": "Gentari", "charge": null, "state": "Johor" }, "geometry": { "type": "Point", "coordinates": [ 103.7650938, 1.4803951 ] } },
{ "type": "Feature", "properties": { "id_0": 74, "id": 87, "amenity": "charging_station", "operator": "chargEV", "access": "yes", "capacity": null, "name": "chargEV", "addr_place": null, "alt_name": null, "brand": "chargEV", "charge": null, "state": "Johor" }, "geometry": { "type": "Point", "coordinates": [ 103.6504208, 1.5793822 ] } },
{ "type": "Feature", "properties": { "id_0": 75, "id": 88, "amenity": "charging_station", "operator": "chargEV", "access": "yes", "capacity": null, "name": "chargEV", "addr_place": null, "alt_name": null, "brand": "chargEV", "charge": null, "state": "Johor" }, "geometry": { "type": "Point", "coordinates": [ 103.7963316, 1.5493109 ] } },
{ "type": "Feature", "properties": { "id_0": 76, "id": 89, "amenity": "charging_station", "operator": "ParkEasy", "access": "yes", "capacity": null, "name": "ParkEasy", "addr_place": null, "alt_name": null, "brand": "ParkEasy", "charge": null, "state": "Johor" }, "geometry": { "type": "Point", "coordinates": [ 103.7983195, 1.5520702 ] } },
{ "type": "Feature", "properties": { "id_0": 77, "id": 90, "amenity": "charging_station", "operator": "IKEA", "access": "yes", "capacity": null, "name": "IKEA EV Charging Station", "addr_place": null, "alt_name": null, "brand": null, "charge": null, "state": "Johor" }, "geometry": { "type": "Point", "coordinates": [ 103.7996184, 1.5516963 ] } },
{ "type": "Feature", "properties": { "id_0": 78, "id": 91, "amenity": "charging_station", "operator": null, "access": "yes", "capacity": null, "name": "Sunway Big Box EV Charging Station", "addr_place": null, "alt_name": null, "brand": null, "charge": null, "state": "Johor" }, "geometry": { "type": "Point", "coordinates": [ 103.6295452, 1.3972034 ] } },
{ "type": "Feature", "properties": { "id_0": 79, "id": 116, "amenity": "charging_station", "operator": "chargEV", "access": "yes", "capacity": null, "name": "chargEV", "addr_place": null, "alt_name": null, "brand": "chargEV", "charge": null, "state": "Johor" }, "geometry": { "type": "Point", "coordinates": [ 103.716434, 1.5487863 ] } },
{ "type": "Feature", "properties": { "id_0": 80, "id": 117, "amenity": "charging_station", "operator": "chargEV", "access": "yes", "capacity": null, "name": "chargEV", "addr_place": null, "alt_name": null, "brand": "chargEV", "charge": null, "state": "Johor" }, "geometry": { "type": "Point", "coordinates": [ 103.6316071, 1.3971185 ] } },
{ "type": "Feature", "properties": { "id_0": 81, "id": 125, "amenity": "charging_station", "operator": "DC Handal", "access": "yes", "capacity": null, "name": "DC Handal", "addr_place": null, "alt_name": null, "brand": "DC Handal", "charge": null, "state": "Johor" }, "geometry": { "type": "Point", "coordinates": [ 103.6224559, 1.6030099 ] } },
{ "type": "Feature", "properties": { "id_0": 82, "id": 126, "amenity": "charging_station", "operator": "Gentari", "access": "yes", "capacity": null, "name": "Gentari", "addr_place": null, "alt_name": null, "brand": "Gentari", "charge": null, "state": "Johor" }, "geometry": { "type": "Point", "coordinates": [ 103.7415311, 1.4757432 ] } },
{ "type": "Feature", "properties": { "id_0": 83, "id": 127, "amenity": "charging_station", "operator": "Gentari", "access": "yes", "capacity": null, "name": "Gentari", "addr_place": null, "alt_name": null, "brand": "Gentari", "charge": null, "state": "Johor" }, "geometry": { "type": "Point", "coordinates": [ 103.7406661, 1.4758797 ] } },
{ "type": "Feature", "properties": { "id_0": 84, "id": 129, "amenity": "charging_station", "operator": "Gentari", "access": "yes", "capacity": null, "name": "Gentari", "addr_place": null, "alt_name": null, "brand": "Gentari", "charge": null, "state": "Johor" }, "geometry": { "type": "Point", "coordinates": [ 103.6456799, 1.6022872 ] } },
{ "type": "Feature", "properties": { "id_0": 85, "id": 132, "amenity": "charging_station", "operator": "ChargeSini", "access": "yes", "capacity": null, "name": "ChargeSini", "addr_place": null, "alt_name": null, "brand": "ChargeSini", "charge": null, "state": "Johor" }, "geometry": { "type": "Point", "coordinates": [ 103.6730687, 1.517588 ] } },
{ "type": "Feature", "properties": { "id_0": 86, "id": 146, "amenity": "charging_station", "operator": "EVPower", "access": "yes", "capacity": null, "name": "EVPower", "addr_place": null, "alt_name": null, "brand": "EVPower", "charge": null, "state": "Johor" }, "geometry": { "type": "Point", "coordinates": [ 103.7776929, 1.5638802 ] } },
{ "type": "Feature", "properties": { "id_0": 87, "id": 149, "amenity": "charging_station", "operator": "Tesla, Inc.", "access": "yes", "capacity": null, "name": "Tesla Supercharger", "addr_place": null, "alt_name": null, "brand": "Tesla Supercharger", "charge": null, "state": "Johor" }, "geometry": { "type": "Point", "coordinates": [ 103.6353344, 1.5907962 ] } },
{ "type": "Feature", "properties": { "id_0": 88, "id": 151, "amenity": "charging_station", "operator": "chargEV", "access": "yes", "capacity": null, "name": "chargEV", "addr_place": null, "alt_name": null, "brand": "chargEV", "charge": null, "state": "Johor" }, "geometry": { "type": "Point", "coordinates": [ 103.7593811, 1.5877876 ] } },
{ "type": "Feature", "properties": { "id_0": 89, "id": 158, "amenity": "charging_station", "operator": "Shell Recharge Solutions", "access": "yes", "capacity": "2", "name": "Shell Recharge Charging Station", "addr_place": null, "alt_name": null, "brand": null, "charge": null, "state": "Johor" }, "geometry": { "type": "Point", "coordinates": [ 102.6982759, 2.1482655 ] } },
{ "type": "Feature", "properties": { "id_0": 90, "id": 161, "amenity": "charging_station", "operator": "chargEV", "access": "yes", "capacity": null, "name": "chargEV", "addr_place": null, "alt_name": null, "brand": "chargEV", "charge": null, "state": "Johor" }, "geometry": { "type": "Point", "coordinates": [ 102.5316578, 2.2438411 ] } },
{ "type": "Feature", "properties": { "id_0": 91, "id": 3, "amenity": "charging_station", "operator": "COSMOS Bangsar", "access": "private", "capacity": "4", "name": "Cosmos", "addr_place": null, "alt_name": null, "brand": null, "charge": null, "state": "Kuala Lumpur" }, "geometry": { "type": "Point", "coordinates": [ 101.6788434, 3.1277894 ] } },
{ "type": "Feature", "properties": { "id_0": 92, "id": 6, "amenity": "charging_station", "operator": "COSMOS Munshi Abdullah", "access": null, "capacity": null, "name": null, "addr_place": null, "alt_name": null, "brand": null, "charge": null, "state": "Kuala Lumpur" }, "geometry": { "type": "Point", "coordinates": [ 101.6983896, 3.1525979 ] } },
{ "type": "Feature", "properties": { "id_0": 93, "id": 21, "amenity": "charging_station", "operator": "Utama Motors", "access": "yes", "capacity": "22, 40 kW", "name": "EV Charger", "addr_place": "Utama Motors", "alt_name": "PEKEMA charger", "brand": "Exicom Harmony", "charge": "FOC initially", "state": "Kuala Lumpur" }, "geometry": { "type": "Point", "coordinates": [ 101.7415416, 3.1606063 ] } },
{ "type": "Feature", "properties": { "id_0": 94, "id": 22, "amenity": "charging_station", "operator": "Hamza Motors", "access": "yes", "capacity": "60 kW", "name": "EV Charger", "addr_place": "Nizra Building, Sungai Penchala", "alt_name": "PEKEMA charger", "brand": "Exicom Harmony", "charge": "FOC initially", "state": "Kuala Lumpur" }, "geometry": { "type": "Point", "coordinates": [ 101.623275, 3.1616628 ] } },
{ "type": "Feature", "properties": { "id_0": 95, "id": 24, "amenity": "charging_station", "operator": null, "access": "private", "capacity": null, "name": "EV Charge", "addr_place": null, "alt_name": null, "brand": null, "charge": null, "state": "Kuala Lumpur" }, "geometry": { "type": "Point", "coordinates": [ 101.6551042, 3.1212153 ] } },
{ "type": "Feature", "properties": { "id_0": 96, "id": 31, "amenity": "charging_station", "operator": "Gentari \/ EV Connection", "access": "yes", "capacity": "18", "name": null, "addr_place": null, "alt_name": null, "brand": "ABB Terra", "charge": "MYR0.50\/min", "state": "Kuala Lumpur" }, "geometry": { "type": "Point", "coordinates": [ 101.6630485, 3.0656547 ] } },
{ "type": "Feature", "properties": { "id_0": 97, "id": 32, "amenity": "charging_station", "operator": "ChargEV Yinson Green Tech", "access": "yes", "capacity": "225kW", "name": null, "addr_place": null, "alt_name": null, "brand": "Kempower", "charge": "MYR1.20\/kWh", "state": "Kuala Lumpur" }, "geometry": { "type": "Point", "coordinates": [ 101.7106726, 3.1429376 ] } },
{ "type": "Feature", "properties": { "id_0": 98, "id": 34, "amenity": "charging_station", "operator": null, "access": null, "capacity": null, "name": null, "addr_place": null, "alt_name": null, "brand": "ChargEV", "charge": null, "state": "Kuala Lumpur" }, "geometry": { "type": "Point", "coordinates": [ 101.6420686, 3.1301251 ] } },
{ "type": "Feature", "properties": { "id_0": 99, "id": 54, "amenity": "charging_station", "operator": null, "access": "yes", "capacity": null, "name": null, "addr_place": null, "alt_name": null, "brand": null, "charge": null, "state": "Kuala Lumpur" }, "geometry": { "type": "Point", "coordinates": [ 101.6649854, 3.1715556 ] } },
{ "type": "Feature", "properties": { "id_0": 100, "id": 92, "amenity": "charging_station", "operator": null, "access": "yes", "capacity": null, "name": "Tesla Destination Charger", "addr_place": null, "alt_name": null, "brand": "Tesla", "charge": null, "state": "Kuala Lumpur" }, "geometry": { "type": "Point", "coordinates": [ 101.7241665, 3.1281617 ] } },
{ "type": "Feature", "properties": { "id_0": 101, "id": 93, "amenity": "charging_station", "operator": null, "access": "yes", "capacity": "6", "name": "Tesla Destination Charger", "addr_place": null, "alt_name": null, "brand": "Tesla, Inc.", "charge": null, "state": "Kuala Lumpur" }, "geometry": { "type": "Point", "coordinates": [ 101.6917172, 3.1664141 ] } },
{ "type": "Feature", "properties": { "id_0": 102, "id": 96, "amenity": "charging_station", "operator": "Tesla, Inc.", "access": null, "capacity": null, "name": "Tesla Supercharger", "addr_place": null, "alt_name": null, "brand": "Tesla Supercharger", "charge": null, "state": "Kuala Lumpur" }, "geometry": { "type": "Point", "coordinates": [ 101.6721036, 3.0493739 ] } },
{ "type": "Feature", "properties": { "id_0": 103, "id": 133, "amenity": "charging_station", "operator": "EVGuru", "access": "yes", "capacity": null, "name": "EVGuru", "addr_place": null, "alt_name": null, "brand": "EVGuru", "charge": null, "state": "Kuala Lumpur" }, "geometry": { "type": "Point", "coordinates": [ 101.6919158, 3.1672296 ] } },
{ "type": "Feature", "properties": { "id_0": 104, "id": 134, "amenity": "charging_station", "operator": "Gentari", "access": "yes", "capacity": null, "name": "Gentari", "addr_place": null, "alt_name": null, "brand": "Gentari", "charge": null, "state": "Kuala Lumpur" }, "geometry": { "type": "Point", "coordinates": [ 101.6917486, 3.1663889 ] } },
{ "type": "Feature", "properties": { "id_0": 158, "id": 26, "amenity": "charging_station", "operator": null, "access": "residents", "capacity": "1", "name": null, "addr_place": null, "alt_name": null, "brand": "Hager", "charge": null, "state": "Penang" }, "geometry": { "type": "Point", "coordinates": [ 100.3019409, 5.410685 ] } },
{ "type": "Feature", "properties": { "id_0": 105, "id": 137, "amenity": "charging_station", "operator": "Shell Recharge Solutions", "access": "yes", "capacity": null, "name": "Shell Recharge", "addr_place": null, "alt_name": null, "brand": "Shell Recharge", "charge": null, "state": "Kuala Lumpur" }, "geometry": { "type": "Point", "coordinates": [ 101.7246183, 3.1277517 ] } },
{ "type": "Feature", "properties": { "id_0": 106, "id": 138, "amenity": "charging_station", "operator": "Gentari", "access": "yes", "capacity": null, "name": "Gentari", "addr_place": null, "alt_name": null, "brand": "Gentari", "charge": null, "state": "Kuala Lumpur" }, "geometry": { "type": "Point", "coordinates": [ 101.7220326, 3.1281133 ] } },
{ "type": "Feature", "properties": { "id_0": 107, "id": 147, "amenity": "charging_station", "operator": "Oyika", "access": "yes", "capacity": "8", "name": "Oyika Battery Swapping Station", "addr_place": null, "alt_name": null, "brand": "rydeEV", "charge": null, "state": "Kuala Lumpur" }, "geometry": { "type": "Point", "coordinates": [ 101.6498666, 3.1577198 ] } },
{ "type": "Feature", "properties": { "id_0": 108, "id": 148, "amenity": "charging_station", "operator": "Gentari", "access": null, "capacity": "6", "name": null, "addr_place": null, "alt_name": null, "brand": null, "charge": null, "state": "Kuala Lumpur" }, "geometry": { "type": "Point", "coordinates": [ 101.650344, 3.2261644 ] } },
{ "type": "Feature", "properties": { "id_0": 109, "id": 154, "amenity": "charging_station", "operator": null, "access": null, "capacity": null, "name": null, "addr_place": null, "alt_name": null, "brand": null, "charge": null, "state": "Kuala Lumpur" }, "geometry": { "type": "Point", "coordinates": [ 101.6960665, 3.1398375 ] } },
{ "type": "Feature", "properties": { "id_0": 110, "id": 156, "amenity": "charging_station", "operator": null, "access": null, "capacity": null, "name": null, "addr_place": null, "alt_name": null, "brand": "chargEV", "charge": null, "state": "Kuala Lumpur" }, "geometry": { "type": "Point", "coordinates": [ 101.6427499, 3.1411667 ] } },
{ "type": "Feature", "properties": { "id_0": 111, "id": 157, "amenity": "charging_station", "operator": null, "access": "private", "capacity": null, "name": "GoEV", "addr_place": null, "alt_name": null, "brand": null, "charge": null, "state": "Kuala Lumpur" }, "geometry": { "type": "Point", "coordinates": [ 101.6873764, 3.1347819 ] } },
{ "type": "Feature", "properties": { "id_0": 112, "id": 159, "amenity": "charging_station", "operator": null, "access": "private", "capacity": "3", "name": null, "addr_place": null, "alt_name": null, "brand": "ChargeSINI", "charge": null, "state": "Kuala Lumpur" }, "geometry": { "type": "Point", "coordinates": [ 101.72218, 3.1445925 ] } },
{ "type": "Feature", "properties": { "id_0": 113, "id": 162, "amenity": "charging_station", "operator": null, "access": "yes", "capacity": "4", "name": null, "addr_place": null, "alt_name": null, "brand": "DC Handal", "charge": null, "state": "Kuala Lumpur" }, "geometry": { "type": "Point", "coordinates": [ 101.6663744, 3.1515177 ] } },
{ "type": "Feature", "properties": { "id_0": 114, "id": 163, "amenity": "charging_station", "operator": null, "access": null, "capacity": "2", "name": null, "addr_place": null, "alt_name": null, "brand": null, "charge": null, "state": "Kuala Lumpur" }, "geometry": { "type": "Point", "coordinates": [ 101.716371, 3.1494857 ] } },
{ "type": "Feature", "properties": { "id_0": 115, "id": 164, "amenity": "charging_station", "operator": "Auto Bavaria", "access": null, "capacity": "2", "name": null, "addr_place": null, "alt_name": null, "brand": null, "charge": null, "state": "Kuala Lumpur" }, "geometry": { "type": "Point", "coordinates": [ 101.7143777, 3.1502256 ] } },
{ "type": "Feature", "properties": { "id_0": 116, "id": 168, "amenity": "charging_station", "operator": null, "access": null, "capacity": null, "name": "Charge sini", "addr_place": null, "alt_name": null, "brand": null, "charge": null, "state": "Kuala Lumpur" }, "geometry": { "type": "Point", "coordinates": [ 101.6960648, 3.1390048 ] } },
{ "type": "Feature", "properties": { "id_0": 117, "id": 173, "amenity": "charging_station", "operator": null, "access": null, "capacity": "4", "name": "Sri Hartamas Nasi Lemak Burung Hantu (DBKL)", "addr_place": null, "alt_name": null, "brand": null, "charge": null, "state": "Kuala Lumpur" }, "geometry": { "type": "Point", "coordinates": [ 101.6522831, 3.163117 ] } },
{ "type": "Feature", "properties": { "id_0": 118, "id": 174, "amenity": "charging_station", "operator": "JomCharge", "access": null, "capacity": "1", "name": "Petaling Street Hello Planet & Sasha", "addr_place": null, "alt_name": null, "brand": null, "charge": null, "state": "Kuala Lumpur" }, "geometry": { "type": "Point", "coordinates": [ 101.6971497, 3.1421039 ] } },
{ "type": "Feature", "properties": { "id_0": 119, "id": 176, "amenity": "charging_station", "operator": null, "access": null, "capacity": null, "name": null, "addr_place": null, "alt_name": null, "brand": null, "charge": null, "state": "Kuala Lumpur" }, "geometry": { "type": "Point", "coordinates": [ 101.6917816, 3.0685955 ] } },
{ "type": "Feature", "properties": { "id_0": 120, "id": 177, "amenity": "charging_station", "operator": null, "access": null, "capacity": null, "name": null, "addr_place": null, "alt_name": null, "brand": null, "charge": null, "state": "Kuala Lumpur" }, "geometry": { "type": "Point", "coordinates": [ 101.6933189, 3.0710267 ] } },
{ "type": "Feature", "properties": { "id_0": 121, "id": 178, "amenity": "charging_station", "operator": "JomCharge", "access": null, "capacity": "1", "name": "Taman Desa Public Bank (DBKL)", "addr_place": null, "alt_name": null, "brand": null, "charge": null, "state": "Kuala Lumpur" }, "geometry": { "type": "Point", "coordinates": [ 101.6825826, 3.1026111 ] } },
{ "type": "Feature", "properties": { "id_0": 122, "id": 179, "amenity": "charging_station", "operator": "BMW", "access": null, "capacity": null, "name": null, "addr_place": null, "alt_name": null, "brand": null, "charge": null, "state": "Kuala Lumpur" }, "geometry": { "type": "Point", "coordinates": [ 101.6729097, 3.1943249 ] } },
{ "type": "Feature", "properties": { "id_0": 123, "id": 180, "amenity": "charging_station", "operator": "JomChargeDiKL", "access": null, "capacity": "3", "name": "Sri Hartamas Watsons (DBKL)", "addr_place": null, "alt_name": null, "brand": null, "charge": null, "state": "Kuala Lumpur" }, "geometry": { "type": "Point", "coordinates": [ 101.650315, 3.1623497 ] } },
{ "type": "Feature", "properties": { "id_0": 124, "id": 181, "amenity": "charging_station", "operator": "JomCharge x DBKL", "access": null, "capacity": "3", "name": "Bangsar Coffee Stain (DBKL)", "addr_place": null, "alt_name": null, "brand": null, "charge": null, "state": "Kuala Lumpur" }, "geometry": { "type": "Point", "coordinates": [ 101.6710324, 3.1308465 ] } },
{ "type": "Feature", "properties": { "id_0": 125, "id": 184, "amenity": "charging_station", "operator": "Quick Charge", "access": "private", "capacity": "2", "name": "Quick Charge 22kW", "addr_place": null, "alt_name": null, "brand": "Quick Charge", "charge": "1 MYR\/kWh", "state": "Kuala Lumpur" }, "geometry": { "type": "Point", "coordinates": [ 101.667805, 3.2091405 ] } },
{ "type": "Feature", "properties": { "id_0": 126, "id": 185, "amenity": "charging_station", "operator": "Quick Charge", "access": "private", "capacity": "2", "name": "Quick Charge 40kW", "addr_place": null, "alt_name": null, "brand": "Quick Charge", "charge": "1 MYR\/kWh", "state": "Kuala Lumpur" }, "geometry": { "type": "Point", "coordinates": [ 101.6678508, 3.2091436 ] } },
{ "type": "Feature", "properties": { "id_0": 127, "id": 14, "amenity": "charging_station", "operator": "JomCharge", "access": "yes", "capacity": null, "name": "JomCharge", "addr_place": "Ayer Keroh R&R Southbound", "alt_name": "EV Charger ACDC", "brand": "JomCharge", "charge": "RM1.20 per minute", "state": "Malacca" }, "geometry": { "type": "Point", "coordinates": [ 102.2236875, 2.3948999 ] } },
{ "type": "Feature", "properties": { "id_0": 128, "id": 15, "amenity": "charging_station", "operator": "JomCharge", "access": "yes", "capacity": null, "name": "JomCharge", "addr_place": "Ayer Keroh R&R Northbound", "alt_name": "EV Charger ACDC", "brand": "JomCharge", "charge": "RM1.20 per minute", "state": "Malacca" }, "geometry": { "type": "Point", "coordinates": [ 102.2196277, 2.3982849 ] } },
{ "type": "Feature", "properties": { "id_0": 129, "id": 52, "amenity": "charging_station", "operator": "Tesla, Inc.", "access": "customers", "capacity": "4", "name": "Tesla Supercharger", "addr_place": null, "alt_name": null, "brand": "Tesla Supercharger", "charge": null, "state": "Malacca" }, "geometry": { "type": "Point", "coordinates": [ 102.2065328, 2.4452524 ] } },
{ "type": "Feature", "properties": { "id_0": 130, "id": 66, "amenity": "charging_station", "operator": "chargEV", "access": "yes", "capacity": null, "name": "chargEV", "addr_place": null, "alt_name": null, "brand": "chargEV", "charge": null, "state": "Malacca" }, "geometry": { "type": "Point", "coordinates": [ 102.2217222, 2.3984706 ] } },
{ "type": "Feature", "properties": { "id_0": 131, "id": 67, "amenity": "charging_station", "operator": "chargEV", "access": null, "capacity": null, "name": "chargEV", "addr_place": null, "alt_name": null, "brand": "chargEV", "charge": null, "state": "Malacca" }, "geometry": { "type": "Point", "coordinates": [ 102.2239535, 2.3945396 ] } },
{ "type": "Feature", "properties": { "id_0": 132, "id": 50, "amenity": "charging_station", "operator": "Gentari", "access": "yes", "capacity": "2", "name": "Gentari", "addr_place": null, "alt_name": null, "brand": "Gentari", "charge": null, "state": "Negeri Sembilan" }, "geometry": { "type": "Point", "coordinates": [ 102.1198072, 2.4667032 ] } },
{ "type": "Feature", "properties": { "id_0": 133, "id": 141, "amenity": "charging_station", "operator": "Shell Recharge Solutions", "access": "yes", "capacity": null, "name": "Shell Recharge", "addr_place": null, "alt_name": null, "brand": null, "charge": null, "state": "Negeri Sembilan" }, "geometry": { "type": "Point", "coordinates": [ 101.8306805, 2.7641531 ] } },
{ "type": "Feature", "properties": { "id_0": 134, "id": 142, "amenity": "charging_station", "operator": "Gentari", "access": null, "capacity": null, "name": "Gentari", "addr_place": null, "alt_name": null, "brand": "Gentari", "charge": null, "state": "Negeri Sembilan" }, "geometry": { "type": "Point", "coordinates": [ 101.831229, 2.7636997 ] } },
{ "type": "Feature", "properties": { "id_0": 135, "id": 143, "amenity": "charging_station", "operator": "chargEV", "access": "yes", "capacity": null, "name": "chargEV", "addr_place": null, "alt_name": null, "brand": "chargEV", "charge": null, "state": "Negeri Sembilan" }, "geometry": { "type": "Point", "coordinates": [ 101.8461598, 2.7568347 ] } },
{ "type": "Feature", "properties": { "id_0": 136, "id": 144, "amenity": "charging_station", "operator": "Shell Recharge Solutions", "access": "yes", "capacity": null, "name": "Shell Recharge", "addr_place": null, "alt_name": null, "brand": "Shell", "charge": null, "state": "Negeri Sembilan" }, "geometry": { "type": "Point", "coordinates": [ 101.8455834, 2.7571409 ] } },
{ "type": "Feature", "properties": { "id_0": 137, "id": 145, "amenity": "charging_station", "operator": "Gentari", "access": "yes", "capacity": null, "name": "Gentari", "addr_place": null, "alt_name": null, "brand": "Gentari", "charge": null, "state": "Negeri Sembilan" }, "geometry": { "type": "Point", "coordinates": [ 101.8442515, 2.7572489 ] } },
{ "type": "Feature", "properties": { "id_0": 138, "id": 1, "amenity": "charging_station", "operator": "Petronas Petrol Station", "access": null, "capacity": null, "name": null, "addr_place": null, "alt_name": null, "brand": null, "charge": null, "state": "Sarawak" }, "geometry": { "type": "Point", "coordinates": [ 111.9310806, 2.2917938 ] } },
{ "type": "Feature", "properties": { "id_0": 139, "id": 2, "amenity": "charging_station", "operator": "Shell", "access": null, "capacity": null, "name": null, "addr_place": null, "alt_name": null, "brand": null, "charge": null, "state": "Sarawak" }, "geometry": { "type": "Point", "coordinates": [ 111.8579264, 2.2692707 ] } },
{ "type": "Feature", "properties": { "id_0": 140, "id": 7, "amenity": "charging_station", "operator": "Sarawak Energy", "access": null, "capacity": "1", "name": null, "addr_place": null, "alt_name": null, "brand": null, "charge": null, "state": "Sarawak" }, "geometry": { "type": "Point", "coordinates": [ 110.3447372, 1.5587312 ] } },
{ "type": "Feature", "properties": { "id_0": 141, "id": 128, "amenity": "charging_station", "operator": null, "access": "customers", "capacity": "2", "name": "Perdana Hotel EV Charging Station", "addr_place": null, "alt_name": null, "brand": "Gentari", "charge": null, "state": "Kelantan" }, "geometry": { "type": "Point", "coordinates": [ 102.2416544, 6.1206843 ] } },
{ "type": "Feature", "properties": { "id_0": 142, "id": 175, "amenity": "charging_station", "operator": null, "access": null, "capacity": "3", "name": "Petron Batu Melintang", "addr_place": null, "alt_name": null, "brand": null, "charge": null, "state": "Kelantan" }, "geometry": { "type": "Point", "coordinates": [ 101.7415537, 5.7041045 ] } },
{ "type": "Feature", "properties": { "id_0": 143, "id": 16, "amenity": "charging_station", "operator": "Hotel Tanjong Vista", "access": "customers", "capacity": null, "name": "EV Charger", "addr_place": null, "alt_name": "EV Charger AC", "brand": "BMW i Wallbox", "charge": "Guests and facilities customers.", "state": "Terengganu" }, "geometry": { "type": "Point", "coordinates": [ 103.1483691, 5.3332752 ] } },
{ "type": "Feature", "properties": { "id_0": 144, "id": 17, "amenity": "charging_station", "operator": "Resorts World Kijal", "access": "customers", "capacity": null, "name": "EV Charger", "addr_place": null, "alt_name": "EV Charger AC", "brand": "BMW i Wallbox", "charge": "Guests and facilities customers.", "state": "Terengganu" }, "geometry": { "type": "Point", "coordinates": [ 103.4559755, 4.3886294 ] } },
{ "type": "Feature", "properties": { "id_0": 145, "id": 165, "amenity": "charging_station", "operator": "Petron", "access": null, "capacity": "2", "name": "Petron Tanjung Gemok", "addr_place": null, "alt_name": null, "brand": null, "charge": null, "state": "Pahang" }, "geometry": { "type": "Point", "coordinates": [ 103.6095983, 2.6785439 ] } },
{ "type": "Feature", "properties": { "id_0": 146, "id": 166, "amenity": "charging_station", "operator": "ParkEasy", "access": null, "capacity": null, "name": "Shell R&R Temerloh E8 Eastbound EV Charging", "addr_place": null, "alt_name": null, "brand": null, "charge": null, "state": "Pahang" }, "geometry": { "type": "Point", "coordinates": [ 102.4418454, 3.5121776 ] } },
{ "type": "Feature", "properties": { "id_0": 147, "id": 36, "amenity": "charging_station", "operator": null, "access": null, "capacity": null, "name": null, "addr_place": null, "alt_name": null, "brand": null, "charge": null, "state": "Kedah" }, "geometry": { "type": "Point", "coordinates": [ 99.7863269, 6.2937945 ] } },
{ "type": "Feature", "properties": { "id_0": 148, "id": 4, "amenity": "charging_station", "operator": "ooooooik", "access": null, "capacity": null, "name": null, "addr_place": null, "alt_name": null, "brand": null, "charge": null, "state": "Perak" }, "geometry": { "type": "Point", "coordinates": [ 100.6238526, 4.4512705 ] } },
{ "type": "Feature", "properties": { "id_0": 149, "id": 19, "amenity": "charging_station", "operator": "EV Connection", "access": "yes", "capacity": "43-50 kW", "name": "EV Charger", "addr_place": "Bukit Gantang Rest Area Northbound", "alt_name": "EV Charger ACDC", "brand": "ABB Terra CJG", "charge": "RM1.20 per minute", "state": "Perak" }, "geometry": { "type": "Point", "coordinates": [ 100.761468, 4.7726251 ] } },
{ "type": "Feature", "properties": { "id_0": 150, "id": 20, "amenity": "charging_station", "operator": "EV Connection", "access": null, "capacity": "43-50 kW", "name": "EV Charger", "addr_place": "Bukit Gantang Rest Area Southbound", "alt_name": "EV Charger ACDC", "brand": "ABB Terra CJG", "charge": "RM1.20 per minute", "state": "Perak" }, "geometry": { "type": "Point", "coordinates": [ 100.7552531, 4.7738068 ] } },
{ "type": "Feature", "properties": { "id_0": 151, "id": 30, "amenity": "charging_station", "operator": "ChargEV", "access": "yes", "capacity": "1", "name": null, "addr_place": null, "alt_name": null, "brand": null, "charge": null, "state": "Perak" }, "geometry": { "type": "Point", "coordinates": [ 101.0761023, 4.598138 ] } },
{ "type": "Feature", "properties": { "id_0": 152, "id": 63, "amenity": "charging_station", "operator": "JomCharge", "access": null, "capacity": null, "name": "JomCharge", "addr_place": null, "alt_name": null, "brand": "JomCharge", "charge": null, "state": "Perak" }, "geometry": { "type": "Point", "coordinates": [ 100.9450512, 4.71309 ] } },
{ "type": "Feature", "properties": { "id_0": 153, "id": 118, "amenity": "charging_station", "operator": "chargEV", "access": "yes", "capacity": null, "name": "chargEV", "addr_place": null, "alt_name": null, "brand": "chargEV", "charge": null, "state": "Perak" }, "geometry": { "type": "Point", "coordinates": [ 101.1479652, 4.6206763 ] } },
{ "type": "Feature", "properties": { "id_0": 154, "id": 119, "amenity": "charging_station", "operator": "Gentari", "access": "yes", "capacity": null, "name": "Gentari", "addr_place": null, "alt_name": null, "brand": "Gentari", "charge": null, "state": "Perak" }, "geometry": { "type": "Point", "coordinates": [ 101.1483179, 4.6203541 ] } },
{ "type": "Feature", "properties": { "id_0": 155, "id": 172, "amenity": "charging_station", "operator": "Yinson GreenTech Business", "access": null, "capacity": "5", "name": "AEON Mall Seri Manjung", "addr_place": null, "alt_name": null, "brand": null, "charge": null, "state": "Perak" }, "geometry": { "type": "Point", "coordinates": [ 100.670789, 4.2202195 ] } },
{ "type": "Feature", "properties": { "id_0": 156, "id": 182, "amenity": "charging_station", "operator": "ChargEV", "access": null, "capacity": "2", "name": "R&R Tapah Southbound", "addr_place": null, "alt_name": null, "brand": null, "charge": null, "state": "Perak" }, "geometry": { "type": "Point", "coordinates": [ 101.289521, 4.1809711 ] } },
{ "type": "Feature", "properties": { "id_0": 157, "id": 25, "amenity": "charging_station", "operator": "Malaysian Green Technology And Climate Change Corporation (MTGC)", "access": null, "capacity": "2", "name": null, "addr_place": null, "alt_name": null, "brand": "chargEV", "charge": null, "state": "Penang" }, "geometry": { "type": "Point", "coordinates": [ 100.2714113, 5.341803 ] } },
{ "type": "Feature", "properties": { "id_0": 159, "id": 27, "amenity": "charging_station", "operator": "ChargEV", "access": "yes", "capacity": "2", "name": "BMW Eletric Vehicle Chargging Point", "addr_place": null, "alt_name": null, "brand": null, "charge": null, "state": "Penang" }, "geometry": { "type": "Point", "coordinates": [ 100.3249895, 5.4209418 ] } },
{ "type": "Feature", "properties": { "id_0": 160, "id": 28, "amenity": "charging_station", "operator": "ChargEV", "access": "private", "capacity": null, "name": "Ecoworld Gallery", "addr_place": null, "alt_name": null, "brand": null, "charge": null, "state": "Penang" }, "geometry": { "type": "Point", "coordinates": [ 100.2743624, 5.3706501 ] } },
{ "type": "Feature", "properties": { "id_0": 161, "id": 35, "amenity": "charging_station", "operator": null, "access": "yes", "capacity": "1", "name": null, "addr_place": null, "alt_name": null, "brand": "ChargEV", "charge": null, "state": "Penang" }, "geometry": { "type": "Point", "coordinates": [ 100.2788465, 5.3292389 ] } },
{ "type": "Feature", "properties": { "id_0": 162, "id": 65, "amenity": "charging_station", "operator": null, "access": "yes", "capacity": null, "name": "Autel", "addr_place": null, "alt_name": null, "brand": "Autel", "charge": null, "state": "Penang" }, "geometry": { "type": "Point", "coordinates": [ 100.4997593, 5.3299696 ] } },
{ "type": "Feature", "properties": { "id_0": 163, "id": 97, "amenity": "charging_station", "operator": "JomCharge", "access": "yes", "capacity": null, "name": "JomCharge", "addr_place": null, "alt_name": null, "brand": "JomCharge", "charge": null, "state": "Penang" }, "geometry": { "type": "Point", "coordinates": [ 100.4352292, 5.3422508 ] } },
{ "type": "Feature", "properties": { "id_0": 164, "id": 98, "amenity": "charging_station", "operator": null, "access": "customers", "capacity": null, "name": null, "addr_place": null, "alt_name": null, "brand": "Icon Hotel Penang EV Charging Station", "charge": null, "state": "Penang" }, "geometry": { "type": "Point", "coordinates": [ 100.432938, 5.342058 ] } },
{ "type": "Feature", "properties": { "id_0": 165, "id": 99, "amenity": "charging_station", "operator": "JomCharge", "access": "yes", "capacity": null, "name": "JomCharge", "addr_place": null, "alt_name": null, "brand": "JomCharge", "charge": null, "state": "Penang" }, "geometry": { "type": "Point", "coordinates": [ 100.4342556, 5.3361309 ] } },
{ "type": "Feature", "properties": { "id_0": 166, "id": 100, "amenity": "charging_station", "operator": "ChargeSini", "access": "yes", "capacity": null, "name": "ChargeSini", "addr_place": null, "alt_name": null, "brand": "ChargeSini", "charge": null, "state": "Penang" }, "geometry": { "type": "Point", "coordinates": [ 100.4146636, 5.3686435 ] } },
{ "type": "Feature", "properties": { "id_0": 167, "id": 101, "amenity": "charging_station", "operator": "chargEV", "access": null, "capacity": null, "name": "chargEV", "addr_place": null, "alt_name": null, "brand": "chargEV", "charge": null, "state": "Penang" }, "geometry": { "type": "Point", "coordinates": [ 100.4074139, 5.3735055 ] } },
{ "type": "Feature", "properties": { "id_0": 168, "id": 102, "amenity": "charging_station", "operator": "chargEV", "access": null, "capacity": null, "name": "chargEV", "addr_place": null, "alt_name": null, "brand": "chargEV", "charge": null, "state": "Penang" }, "geometry": { "type": "Point", "coordinates": [ 100.4177256, 5.3548987 ] } },
{ "type": "Feature", "properties": { "id_0": 169, "id": 103, "amenity": "charging_station", "operator": "Gentari", "access": null, "capacity": null, "name": "Gentari", "addr_place": null, "alt_name": null, "brand": "Gentari", "charge": null, "state": "Penang" }, "geometry": { "type": "Point", "coordinates": [ 100.4161411, 5.3543662 ] } },
{ "type": "Feature", "properties": { "id_0": 170, "id": 104, "amenity": "charging_station", "operator": "Gentari", "access": "yes", "capacity": null, "name": "Gentari", "addr_place": null, "alt_name": null, "brand": "Gentari", "charge": null, "state": "Penang" }, "geometry": { "type": "Point", "coordinates": [ 100.4196649, 5.3547452 ] } },
{ "type": "Feature", "properties": { "id_0": 171, "id": 105, "amenity": "charging_station", "operator": "JomCharge", "access": "yes", "capacity": null, "name": "JomCharge", "addr_place": null, "alt_name": null, "brand": "JomCharge", "charge": null, "state": "Penang" }, "geometry": { "type": "Point", "coordinates": [ 100.4190837, 5.3545322 ] } },
{ "type": "Feature", "properties": { "id_0": 172, "id": 106, "amenity": "charging_station", "operator": "JomCharge", "access": "yes", "capacity": null, "name": "JomCharge", "addr_place": null, "alt_name": null, "brand": "JomCharge", "charge": null, "state": "Penang" }, "geometry": { "type": "Point", "coordinates": [ 100.4179769, 5.3548696 ] } },
{ "type": "Feature", "properties": { "id_0": 173, "id": 107, "amenity": "charging_station", "operator": "TNB Electron", "access": "yes", "capacity": null, "name": "TNB Electron", "addr_place": null, "alt_name": null, "brand": "TNB Electron", "charge": null, "state": "Penang" }, "geometry": { "type": "Point", "coordinates": [ 100.4185542, 5.3547461 ] } },
{ "type": "Feature", "properties": { "id_0": 174, "id": 108, "amenity": "charging_station", "operator": "EVlution", "access": null, "capacity": null, "name": "EVlution", "addr_place": null, "alt_name": null, "brand": "EVlution", "charge": null, "state": "Penang" }, "geometry": { "type": "Point", "coordinates": [ 100.4336859, 5.3430476 ] } },
{ "type": "Feature", "properties": { "id_0": 175, "id": 109, "amenity": "charging_station", "operator": "chargEV", "access": null, "capacity": null, "name": "chargEV", "addr_place": null, "alt_name": null, "brand": "chargEV", "charge": null, "state": "Penang" }, "geometry": { "type": "Point", "coordinates": [ 100.434473, 5.3457183 ] } },
{ "type": "Feature", "properties": { "id_0": 176, "id": 111, "amenity": "charging_station", "operator": null, "access": "yes", "capacity": null, "name": "Tesla Destination Charger", "addr_place": null, "alt_name": null, "brand": "Tesla, Inc.", "charge": null, "state": "Penang" }, "geometry": { "type": "Point", "coordinates": [ 100.4262414, 5.2234264 ] } },
{ "type": "Feature", "properties": { "id_0": 177, "id": 112, "amenity": "charging_station", "operator": null, "access": "yes", "capacity": null, "name": "Tesla Destination Charger", "addr_place": null, "alt_name": null, "brand": "Tesla, Inc.", "charge": null, "state": "Penang" }, "geometry": { "type": "Point", "coordinates": [ 100.2904721, 5.3963354 ] } },
{ "type": "Feature", "properties": { "id_0": 178, "id": 113, "amenity": "charging_station", "operator": "chargEV", "access": "yes", "capacity": null, "name": "chargEV", "addr_place": null, "alt_name": null, "brand": "chargEV", "charge": null, "state": "Penang" }, "geometry": { "type": "Point", "coordinates": [ 100.4439911, 5.2365664 ] } },
{ "type": "Feature", "properties": { "id_0": 179, "id": 114, "amenity": "charging_station", "operator": "JomCharge", "access": "yes", "capacity": null, "name": "JomCharge", "addr_place": null, "alt_name": null, "brand": "JomCharge", "charge": null, "state": "Penang" }, "geometry": { "type": "Point", "coordinates": [ 100.4445692, 5.2390154 ] } },
{ "type": "Feature", "properties": { "id_0": 180, "id": 115, "amenity": "charging_station", "operator": "JomCharge", "access": "yes", "capacity": null, "name": "JomCharge", "addr_place": null, "alt_name": null, "brand": "JomCharge", "charge": null, "state": "Penang" }, "geometry": { "type": "Point", "coordinates": [ 100.4517032, 5.2394057 ] } },
{ "type": "Feature", "properties": { "id_0": 181, "id": 139, "amenity": "charging_station", "operator": "EVlution", "access": "yes", "capacity": null, "name": "EVlution", "addr_place": null, "alt_name": null, "brand": "EVlution", "charge": null, "state": "Penang" }, "geometry": { "type": "Point", "coordinates": [ 100.4057289, 5.3761078 ] } },
{ "type": "Feature", "properties": { "id_0": 182, "id": 167, "amenity": "charging_station", "operator": "ChargeSini", "access": null, "capacity": "2", "name": null, "addr_place": null, "alt_name": null, "brand": null, "charge": null, "state": "Penang" }, "geometry": { "type": "Point", "coordinates": [ 100.323032, 5.422827 ] } },
{ "type": "Feature", "properties": { "id_0": 183, "id": 169, "amenity": "charging_station", "operator": null, "access": null, "capacity": null, "name": null, "addr_place": null, "alt_name": null, "brand": null, "charge": null, "state": "Penang" }, "geometry": { "type": "Point", "coordinates": [ 100.3294764, 5.4134094 ] } },
{ "type": "Feature", "properties": { "id_0": 184, "id": 170, "amenity": "charging_station", "operator": null, "access": null, "capacity": null, "name": null, "addr_place": null, "alt_name": null, "brand": null, "charge": null, "state": "Penang" }, "geometry": { "type": "Point", "coordinates": [ 100.3237503, 5.41796 ] } },
{ "type": "Feature", "properties": { "id_0": 185, "id": 183, "amenity": "charging_station", "operator": null, "access": null, "capacity": null, "name": null, "addr_place": null, "alt_name": null, "brand": null, "charge": null, "state": "Penang" }, "geometry": { "type": "Point", "coordinates": [ 100.2764468, 5.4016299 ] } }
]
}
